[{"OBJECT_NAME":"OBJECT E","OBJECT_ID":"2023-091E","EPOCH":"2026-03-09T22:26:33.073728","MEAN_MOTION":15.22514482,"ECCENTRICITY":0.00108779,"INCLINATION":97.5235,"RA_OF_ASC_NODE":130.4024,"ARG_OF_PERICENTER":84.6411,"MEAN_ANOMALY":275.6066,"EPHEMERIS_TYPE":0,"CLASSIFICATION_TYPE":"U","NORAD_CAT_ID":57170,"ELEMENT_SET_NO":999,"REV_AT_EPOCH":14905,"BSTAR":0.00044574871,"MEAN_MOTION_DOT":0.00010283,"MEAN_MOTION_DDOT":0},{"OBJECT_NAME":"GITAI-SC1","OBJECT_ID":"2024-247M","EPOCH":"2026-03-09T05:02:48.475392","MEAN_MOTION":15.20258622,"ECCENTRICITY":0.00021257,"INCLINATION":45.001,"RA_OF_ASC_NODE":131.8038,"ARG_OF_PERICENTER":277.7935,"MEAN_ANOMALY":82.2703,"EPHEMERIS_TYPE":0,"CLASSIFICATION_TYPE":"U","NORAD_CAT_ID":62388,"ELEMENT_SET_NO":999,"REV_AT_EPOCH":6751,"BSTAR":0.00028634303,"MEAN_MOTION_DOT":6.055e-5,"MEAN_MOTION_DDOT":0}]
